[{"OBJECT_NAME":"STARLINK-11505 [DTC]","OBJECT_ID":"2024-254H","EPOCH":"2026-03-09T13:38:34.150848","MEAN_MOTION":15.70807986,"ECCENTRICITY":0.0006306,"INCLINATION":43.0025,"RA_OF_ASC_NODE":223.5788,"ARG_OF_PERICENTER":295.0096,"MEAN_ANOMALY":65.0116,"EPHEMERIS_TYPE":0,"CLASSIFICATION_TYPE":"U","NORAD_CAT_ID":62469,"ELEMENT_SET_NO":999,"REV_AT_EPOCH":6937,"BSTAR":0.0017558,"MEAN_MOTION_DOT":0.00231076,"MEAN_MOTION_DDOT":0},{"OBJECT_NAME":"CZ-2C R\/B","OBJECT_ID":"2021-039E","EPOCH":"2026-03-09T09:27:45.017856","MEAN_MOTION":15.64132714,"ECCENTRICITY":0.00310654,"INCLINATION":34.9801,"RA_OF_ASC_NODE":125.6229,"ARG_OF_PERICENTER":235.3635,"MEAN_ANOMALY":124.4161,"EPHEMERIS_TYPE":0,"CLASSIFICATION_TYPE":"U","NORAD_CAT_ID":48427,"ELEMENT_SET_NO":999,"REV_AT_EPOCH":26989,"BSTAR":0.00058987326,"MEAN_MOTION_DOT":0.00059804,"MEAN_MOTION_DDOT":0}]
